[
  {
    "OBJECT_NAME": "STARLINK-1012",
    "OBJECT_ID": "19074F",
    "EPOCH": "2025-11-10T10:58:41.886336",
    "MEAN_MOTION": 15.06440056,
    "ECCENTRICITY": 0.0001152,
    "INCLINATION": 53.0547,
    "RA_OF_ASC_NODE": 1.8732,
    "ARG_OF_PERICENTER": 85.3636,
    "MEAN_ANOMALY": 274.7484,
    "EPHEMERIS_TYPE": 0,
    "CLASSIFICATION_TYPE": "U",
    "NORAD_CAT_ID": 44718,
    "ELEMENT_SET_NO": 999,
    "REV_AT_EPOCH": 33077,
    "BSTAR": 0.0007388000000000001,
    "MEAN_MOTION_DOT": 0.00010752,
    "MEAN_MOTION_DDOT": 0.0,
    "TLE_LINE1": "1 44718U 19074F   25314.45742924  .00010752  00000+0  73880-3 0  9990",
    "TLE_LINE2": "2 44718  53.0547   1.8732 0001152  85.3636 274.7484 15.06440056330778",
    "COMMENT": "Grouped by shell and plane from TLE"
  },
  {
    "OBJECT_NAME": "STARLINK-1482",
    "OBJECT_ID": "20038AV",
    "EPOCH": "2025-11-11T03:45:52.014528",
    "MEAN_MOTION": 15.064051,
    "ECCENTRICITY": 0.0002054,
    "INCLINATION": 53.0545,
    "RA_OF_ASC_NODE": 8.7373,
    "ARG_OF_PERICENTER": 76.3127,
    "MEAN_ANOMALY": 283.8091,
    "EPHEMERIS_TYPE": 0,
    "CLASSIFICATION_TYPE": "U",
    "NORAD_CAT_ID": 45773,
    "ELEMENT_SET_NO": 999,
    "REV_AT_EPOCH": 29889,
    "BSTAR": 0.0006555800000000001,
    "MEAN_MOTION_DOT": 9.498e-05,
    "MEAN_MOTION_DDOT": 0.0,
    "TLE_LINE1": "1 45773U 20038AV  25315.15685202  .00009498  00000+0  65558-3 0  9995",
    "TLE_LINE2": "2 45773  53.0545   8.7373 0002054  76.3127 283.8091 15.06405100298894",
    "COMMENT": "Grouped by shell and plane from TLE"
  },
  {
    "OBJECT_NAME": "STARLINK-1496",
    "OBJECT_ID": "20038BC",
    "EPOCH": "2025-11-11T04:33:37.547424",
    "MEAN_MOTION": 15.06391849,
    "ECCENTRICITY": 6.53e-05,
    "INCLINATION": 53.0558,
    "RA_OF_ASC_NODE": 8.5841,
    "ARG_OF_PERICENTER": 61.9508,
    "MEAN_ANOMALY": 298.1547,
    "EPHEMERIS_TYPE": 0,
    "CLASSIFICATION_TYPE": "U",
    "NORAD_CAT_ID": 45780,
    "ELEMENT_SET_NO": 999,
    "REV_AT_EPOCH": 29888,
    "BSTAR": 0.0,
    "MEAN_MOTION_DOT": -3.146e-05,
    "MEAN_MOTION_DDOT": 0.0,
    "TLE_LINE1": "1 45780U 20038BC  25315.19001791 -.00003146  00000+0 -19247-3 0  9992",
    "TLE_LINE2": "2 45780  53.0558   8.5841 0000653  61.9508 298.1547 15.06391849298888",
    "COMMENT": "Grouped by shell and plane from TLE"
  },
  {
    "OBJECT_NAME": "STARLINK-1513",
    "OBJECT_ID": "20038BJ",
    "EPOCH": "2025-11-11T03:40:32.839104",
    "MEAN_MOTION": 15.06388798,
    "ECCENTRICITY": 0.000144,
    "INCLINATION": 53.058,
    "RA_OF_ASC_NODE": 8.7505,
    "ARG_OF_PERICENTER": 90.4986,
    "MEAN_ANOMALY": 269.6168,
    "EPHEMERIS_TYPE": 0,
    "CLASSIFICATION_TYPE": "U",
    "NORAD_CAT_ID": 45786,
    "ELEMENT_SET_NO": 999,
    "REV_AT_EPOCH": 29889,
    "BSTAR": 2.6009e-05,
    "MEAN_MOTION_DOT": 1.06e-06,
    "MEAN_MOTION_DDOT": 0.0,
    "TLE_LINE1": "1 45786U 20038BJ  25315.15315786  .00000106  00000+0  26009-4 0  9992",
    "TLE_LINE2": "2 45786  53.0580   8.7505 0001440  90.4986 269.6168 15.06388798298892",
    "COMMENT": "Grouped by shell and plane from TLE"
  },
  {
    "OBJECT_NAME": "STARLINK-2068",
    "OBJECT_ID": "21017A",
    "EPOCH": "2025-11-11T07:18:13.292928",
    "MEAN_MOTION": 15.06395989,
    "ECCENTRICITY": 0.0001271,
    "INCLINATION": 53.0567,
    "RA_OF_ASC_NODE": 8.3131,
    "ARG_OF_PERICENTER": 103.157,
    "MEAN_ANOMALY": 256.9561,
    "EPHEMERIS_TYPE": 0,
    "CLASSIFICATION_TYPE": "U",
    "NORAD_CAT_ID": 47722,
    "ELEMENT_SET_NO": 999,
    "REV_AT_EPOCH": 26014,
    "BSTAR": 0.0,
    "MEAN_MOTION_DOT": -1.396e-05,
    "MEAN_MOTION_DDOT": 0.0,
    "TLE_LINE1": "1 47722U 21017A   25315.30432052 -.00001396  00000+0 -74868-4 0  9995",
    "TLE_LINE2": "2 47722  53.0567   8.3131 0001271 103.1570 256.9561 15.06395989260146",
    "COMMENT": "Grouped by shell and plane from TLE"
  },
  {
    "OBJECT_NAME": "STARLINK-2642",
    "OBJECT_ID": "21040K",
    "EPOCH": "2025-11-11T07:32:03.850080",
    "MEAN_MOTION": 15.06470842,
    "ECCENTRICITY": 0.0001609,
    "INCLINATION": 53.0542,
    "RA_OF_ASC_NODE": 3.0271,
    "ARG_OF_PERICENTER": 99.9453,
    "MEAN_ANOMALY": 260.1718,
    "EPHEMERIS_TYPE": 0,
    "CLASSIFICATION_TYPE": "U",
    "NORAD_CAT_ID": 48437,
    "ELEMENT_SET_NO": 999,
    "REV_AT_EPOCH": 24864,
    "BSTAR": 0.0017335999999999999,
    "MEAN_MOTION_DOT": 0.00025685,
    "MEAN_MOTION_DDOT": 0.0,
    "TLE_LINE1": "1 48437U 21040K   25315.31393345  .00025685  00000+0  17336-2 0  9997",
    "TLE_LINE2": "2 48437  53.0542   3.0271 0001609  99.9453 260.1718 15.06470842248641",
    "COMMENT": "Grouped by shell and plane from TLE"
  },
  {
    "OBJECT_NAME": "STARLINK-2683",
    "OBJECT_ID": "21040AL",
    "EPOCH": "2025-11-11T06:54:58.336416",
    "MEAN_MOTION": 15.06406011,
    "ECCENTRICITY": 0.0001262,
    "INCLINATION": 53.0558,
    "RA_OF_ASC_NODE": 3.4208,
    "ARG_OF_PERICENTER": 86.9483,
    "MEAN_ANOMALY": 273.165,
    "EPHEMERIS_TYPE": 0,
    "CLASSIFICATION_TYPE": "U",
    "NORAD_CAT_ID": 48462,
    "ELEMENT_SET_NO": 999,
    "REV_AT_EPOCH": 24864,
    "BSTAR": 0.00070569,
    "MEAN_MOTION_DOT": 0.00010247,
    "MEAN_MOTION_DDOT": 0.0,
    "TLE_LINE1": "1 48462U 21040AL  25315.28817519  .00010247  00000+0  70569-3 0  9991",
    "TLE_LINE2": "2 48462  53.0558   3.4208 0001262  86.9483 273.1650 15.06406011248640",
    "COMMENT": "Grouped by shell and plane from TLE"
  },
  {
    "OBJECT_NAME": "STARLINK-2686",
    "OBJECT_ID": "21040AN",
    "EPOCH": "2025-11-11T03:22:38.602848",
    "MEAN_MOTION": 15.0640475,
    "ECCENTRICITY": 0.0001171,
    "INCLINATION": 53.0542,
    "RA_OF_ASC_NODE": 3.8066,
    "ARG_OF_PERICENTER": 66.0085,
    "MEAN_ANOMALY": 294.1027,
    "EPHEMERIS_TYPE": 0,
    "CLASSIFICATION_TYPE": "U",
    "NORAD_CAT_ID": 48464,
    "ELEMENT_SET_NO": 999,
    "REV_AT_EPOCH": 24862,
    "BSTAR": 5.7143000000000005e-06,
    "MEAN_MOTION_DOT": -1.96e-06,
    "MEAN_MOTION_DDOT": 0.0,
    "TLE_LINE1": "1 48464U 21040AN  25315.14072457 -.00000196  00000+0  57143-5 0  9990",
    "TLE_LINE2": "2 48464  53.0542   3.8066 0001171  66.0085 294.1027 15.06404750248624",
    "COMMENT": "Grouped by shell and plane from TLE"
  },
  {
    "OBJECT_NAME": "STARLINK-2681",
    "OBJECT_ID": "21040AP",
    "EPOCH": "2025-11-11T06:49:38.399808",
    "MEAN_MOTION": 15.0641392,
    "ECCENTRICITY": 0.0001572,
    "INCLINATION": 53.0567,
    "RA_OF_ASC_NODE": 3.1586,
    "ARG_OF_PERICENTER": 96.5426,
    "MEAN_ANOMALY": 263.5742,
    "EPHEMERIS_TYPE": 0,
    "CLASSIFICATION_TYPE": "U",
    "NORAD_CAT_ID": 48465,
    "ELEMENT_SET_NO": 999,
    "REV_AT_EPOCH": 24865,
    "BSTAR": 0.00024833,
    "MEAN_MOTION_DOT": 3.421e-05,
    "MEAN_MOTION_DDOT": 0.0,
    "TLE_LINE1": "1 48465U 21040AP  25315.28447222  .00003421  00000+0  24833-3 0  9993",
    "TLE_LINE2": "2 48465  53.0567   3.1586 0001572  96.5426 263.5742 15.06413920248650",
    "COMMENT": "Grouped by shell and plane from TLE"
  },
  {
    "OBJECT_NAME": "STARLINK-2687",
    "OBJECT_ID": "21040AQ",
    "EPOCH": "2025-11-11T03:17:20.263776",
    "MEAN_MOTION": 15.06401507,
    "ECCENTRICITY": 0.0001416,
    "INCLINATION": 53.0549,
    "RA_OF_ASC_NODE": 3.8215,
    "ARG_OF_PERICENTER": 89.6112,
    "MEAN_ANOMALY": 270.5039,
    "EPHEMERIS_TYPE": 0,
    "CLASSIFICATION_TYPE": "U",
    "NORAD_CAT_ID": 48466,
    "ELEMENT_SET_NO": 999,
    "REV_AT_EPOCH": 24863,
    "BSTAR": 0.00020108000000000002,
    "MEAN_MOTION_DOT": 2.715e-05,
    "MEAN_MOTION_DDOT": 0.0,
    "TLE_LINE1": "1 48466U 21040AQ  25315.13704009  .00002715  00000+0  20108-3 0  9993",
    "TLE_LINE2": "2 48466  53.0549   3.8215 0001416  89.6112 270.5039 15.06401507248632",
    "COMMENT": "Grouped by shell and plane from TLE"
  },
  {
    "OBJECT_NAME": "STARLINK-2659",
    "OBJECT_ID": "21040AR",
    "EPOCH": "2025-11-11T07:05:34.170432",
    "MEAN_MOTION": 15.06394479,
    "ECCENTRICITY": 0.0001511,
    "INCLINATION": 53.0552,
    "RA_OF_ASC_NODE": 3.109,
    "ARG_OF_PERICENTER": 94.0402,
    "MEAN_ANOMALY": 266.076,
    "EPHEMERIS_TYPE": 0,
    "CLASSIFICATION_TYPE": "U",
    "NORAD_CAT_ID": 48467,
    "ELEMENT_SET_NO": 999,
    "REV_AT_EPOCH": 24865,
    "BSTAR": 0.00026541,
    "MEAN_MOTION_DOT": 3.673e-05,
    "MEAN_MOTION_DDOT": 0.0,
    "TLE_LINE1": "1 48467U 21040AR  25315.29553438  .00003673  00000+0  26541-3 0  9990",
    "TLE_LINE2": "2 48467  53.0552   3.1090 0001511  94.0402 266.0760 15.06394479248651",
    "COMMENT": "Grouped by shell and plane from TLE"
  },
  {
    "OBJECT_NAME": "STARLINK-2685",
    "OBJECT_ID": "21040AS",
    "EPOCH": "2025-11-11T06:39:01.700064",
    "MEAN_MOTION": 15.06415866,
    "ECCENTRICITY": 0.0001365,
    "INCLINATION": 53.055,
    "RA_OF_ASC_NODE": 3.1942,
    "ARG_OF_PERICENTER": 88.714,
    "MEAN_ANOMALY": 271.4006,
    "EPHEMERIS_TYPE": 0,
    "CLASSIFICATION_TYPE": "U",
    "NORAD_CAT_ID": 48468,
    "ELEMENT_SET_NO": 999,
    "REV_AT_EPOCH": 24865,
    "BSTAR": 0.0005354400000000001,
    "MEAN_MOTION_DOT": 7.706e-05,
    "MEAN_MOTION_DDOT": 0.0,
    "TLE_LINE1": "1 48468U 21040AS  25315.27710301  .00007706  00000+0  53544-3 0  9997",
    "TLE_LINE2": "2 48468  53.0550   3.1942 0001365  88.7140 271.4006 15.06415866248659",
    "COMMENT": "Grouped by shell and plane from TLE"
  },
  {
    "OBJECT_NAME": "STARLINK-2661",
    "OBJECT_ID": "21040AT",
    "EPOCH": "2025-11-11T07:00:16.190784",
    "MEAN_MOTION": 15.06419508,
    "ECCENTRICITY": 0.000205,
    "INCLINATION": 53.0563,
    "RA_OF_ASC_NODE": 3.1254,
    "ARG_OF_PERICENTER": 102.3388,
    "MEAN_ANOMALY": 257.783,
    "EPHEMERIS_TYPE": 0,
    "CLASSIFICATION_TYPE": "U",
    "NORAD_CAT_ID": 48469,
    "ELEMENT_SET_NO": 999,
    "REV_AT_EPOCH": 24865,
    "BSTAR": 0.00052049,
    "MEAN_MOTION_DOT": 7.484e-05,
    "MEAN_MOTION_DDOT": 0.0,
    "TLE_LINE1": "1 48469U 21040AT  25315.29185406  .00007484  00000+0  52049-3 0  9994",
    "TLE_LINE2": "2 48469  53.0563   3.1254 0002050 102.3388 257.7830 15.06419508248658",
    "COMMENT": "Grouped by shell and plane from TLE"
  }
]